[{"OBJECT_NAME":"STARLINK-32175","OBJECT_ID":"2024-136L","EPOCH":"2026-03-09T10:12:22.126176","MEAN_MOTION":15.30196907,"ECCENTRICITY":0.0001314,"INCLINATION":53.1602,"RA_OF_ASC_NODE":76.9225,"ARG_OF_PERICENTER":84.2758,"MEAN_ANOMALY":275.8392,"EPHEMERIS_TYPE":0,"CLASSIFICATION_TYPE":"U","NORAD_CAT_ID":60339,"ELEMENT_SET_NO":999,"REV_AT_EPOCH":8962,"BSTAR":-3.5626797e-5,"MEAN_MOTION_DOT":-1.414e-5,"MEAN_MOTION_DDOT":0},{"OBJECT_NAME":"ASRTU-1 (AO-123)","OBJECT_ID":"2024-199AY","EPOCH":"2026-03-09T22:36:42.151392","MEAN_MOTION":15.34070057,"ECCENTRICITY":0.0012786,"INCLINATION":97.3152,"RA_OF_ASC_NODE":298.5256,"ARG_OF_PERICENTER":309.3392,"MEAN_ANOMALY":50.6717,"EPHEMERIS_TYPE":0,"CLASSIFICATION_TYPE":"U","NORAD_CAT_ID":61781,"ELEMENT_SET_NO":999,"REV_AT_EPOCH":11870,"BSTAR":0.00032267684,"MEAN_MOTION_DOT":0.00010589,"MEAN_MOTION_DDOT":0}]
